1 42950U 17059A   25067.40878167 -.00000157  00000-0  00000+0 0  9996
2 42950   0.0185 144.9210 0002175 193.7890 316.7566  1.00270570 27374
1 42950U 17059A   25067.82458953 -.00000157  00000-0  00000-0 0  9990
2 42950   0.0179 142.7818 0002185 196.5556 106.2281  1.00270586 27393
1 42950U 17059A   25068.39606566 -.00000158  00000-0  00000-0 0  9999
2 42950   0.0169 139.5375 0002263 203.4503 308.8792  1.00272494 27400
1 42950U 17059A   25068.39606566 -.00000158  00000-0  00000+0 0  9998
2 42950   0.0169 139.5375 0002263 203.4503 308.8792  1.00272494 27387
1 42950U 17059A   25069.38864130 -.00000159  00000-0  00000+0 0  9992
2 42950   0.0257 160.2304 0002214 188.8999 301.0778  1.00270521 27398
1 42950U 17059A   25069.47544880 -.00000158  00000-0  00000-0 0  9999
2 42950   0.0257 160.1551 0002213 192.3229 329.0669  1.00270559 27419
1 42950U 17059A   25070.39600968 -.00000157  00000-0  00000+0 0  9990
2 42950   0.0272 159.2200 0002219 193.0828 301.5535  1.00270240 27408
1 42950U 17059A   25070.48864292 -.00000157  00000-0  00000-0 0  9993
2 42950   0.0272 159.2518 0002215 193.1219 334.9221  1.00270229 27422
1 42950U 17059A   25070.89600362 -.00000156  00000-0  00000-0 0  9993
2 42950   0.0276 158.9946 0002230 194.4620 120.8912  1.00270177 27436
1 42950U 17059A   25071.35442251 -.00000155  00000-0  00000+0 0  9994
2 42950   0.0169 154.9755 0002186 194.4992 290.3266  1.00272698 27416
1 42950U 17059A   25071.49211244 -.00000155  00000-0  00000-0 0  9996
2 42950   0.0279 158.6497 0002215 196.7948 334.0911  1.00270111 27434
1 42950U 17059A   25071.89714161 -.00000153  00000-0  00000-0 0  9994
2 42950   0.0281 158.4448 0002227 198.4923 118.8083  1.00270088 27448
1 42950U 17059A   25071.89714161 -.00000153  00000-0  00000+0 0  9993
2 42950   0.0281 158.4448 0002227 198.4923 118.8083  1.00270088 27426
1 42950U 17059A   25072.10979752 -.00000152  00000-0  00000+0 0  9996
2 42950   0.0170 151.4928 0002197 200.8852 200.1051  1.00272741 27422
1 42950U 17059A   25072.33105323 -.00000151  00000-0  00000-0 0  9996
2 42950   0.0011 177.5969 0002188 175.5911 279.1661  1.00272752 27441
1 42950U 17059A   25072.89028102 -.00000149  00000-0  00000-0 0  9993
2 42950   0.0192 151.8905 0002205 206.7671 115.5709  1.00272783 27457
1 42950U 17059A   25073.48521582 -.00000147  00000-0  00000-0 0  9997
2 42950   0.0202 150.6717 0002191 207.9786 330.3438  1.00272729 27457
1 42950U 17059A   25073.89527666 -.00000145  00000-0  00000-0 0  9999
2 42950   0.0195 148.2979 0002192 210.6954 118.0284  1.00272659 27463
1 42950U 17059A   25074.42758097 -.00000143  00000-0  00000+0 0  9990
2 42950   0.0216 147.4271 0002186 211.9166 309.8341  1.00272646 27443
1 42950U 17059A   25074.49216111 -.00000142  00000-0  00000-0 0  9993
2 42950   0.0207 147.3248 0002186 212.7618 332.4038  1.00272636 27463
1 42950U 17059A   25074.86229902 -.00000141  00000-0  00000-0 0  9995
2 42950   0.0214 146.6107 0002183 213.0239 106.4714  1.00272592 27479
1 42950U 17059A   25075.32364628 -.00000139  00000-0  00000-0 0  9999
2 42950   0.0201 145.5218 0002185 215.1798 271.9461  1.00272549 27470
1 42950U 17059A   25075.84771632 -.00000138  00000-0  00000+0 0  9991
2 42950   0.0225 184.6843 0002095 183.7728  93.3882  1.00270563 27463
1 42950U 17059A   25075.91229807 -.00000138  00000-0  00000-0 0  9992
2 42950   0.0223 184.2555 0002093 184.3414 116.5616  1.00270592 27481
1 42950U 17059A   25076.18069779 -.00000137  00000-0  00000+0 0  9990
2 42950   0.0022 155.5444 0002122 214.0335 212.4548  1.00272488 27466
1 42950U 17059A   25076.39495150 -.00000136  00000-0  00000+0 0  9998
2 42950   0.0145 184.3807 0002124 185.1441 289.8505  1.00272444 27466
1 42950U 17059A   25076.47618859 -.00000136  00000-0  00000-0 0  9991
2 42950   0.0180 186.0492 0002132 183.8796 318.7725  1.00272429 27482
1 42950U 17059A   25076.83051649 -.00000135  00000-0  00000+0 0  9997
2 42950   0.0007 181.8109 0002122 187.0799  87.7189  1.00272365 27471
1 42950U 17059A   25076.89490303 -.00000135  00000-0  00000-0 0  9998
2 42950   0.0005 181.8339 0002122 187.2306 110.7876  1.00272392 27492
1 42950U 17059A   25077.39475711 -.00000135  00000-0  00000+0 0  9999
2 42950   0.0205 175.9064 0002148 196.3004 288.0985  1.00270281 27470
1 42950U 17059A   25077.49285568 -.00000134  00000-0  00000-0 0  9999
2 42950   0.0203 174.4914 0002147 197.8200 323.4061  1.00270279 27497
1 42950U 17059A   25077.85763940 -.00000134  00000-0  00000-0 0  9994
2 42950   0.0203 172.3511 0002147 201.7771  93.2709  1.00270295 27506
1 42950U 17059A   25078.36854828 -.00000134  00000-0  00000-0 0  9997
2 42950   0.0202 168.2712 0002202 208.1312 275.4286  1.00270314 27502
1 42950U 17059A   25078.36854828 -.00000134  00000-0  00000+0 0  9996
2 42950   0.0202 168.2712 0002202 208.1312 275.4286  1.00270314 27489
1 42950U 17059A   25078.75650010 -.00000133  00000-0  00000-0 0  9996
2 42950   0.0176 170.7261 0002173 204.0783  57.0621  1.00272173 27505
1 42950U 17059A   25079.39448804 -.00000134  00000-0  00000+0 0  9993
2 42950   0.0176 165.3834 0002165 209.2045 287.5839  1.00272067 27491
1 42950U 17059A   25079.50808600 -.00000134  00000-0  00000-0 0  9991
2 42950   0.0175 163.0738 0002169 211.8538 328.2517  1.00272027 27513
1 42950U 17059A   25079.89439838 -.00000134  00000-0  00000-0 0  9996
2 42950   0.0175 163.7203 0002152 211.4200 107.4922  1.00271944 27526
1 42950U 17059A   25080.50113985 -.00000135  00000-0  00000-0 0  9999
2 42950   0.0179 159.8360 0002173 215.5368 326.2848  1.00271825 27529
1 42950U 17059A   25080.85878169 -.00000136  00000-0  00000-0 0  9990
2 42950   0.0185 160.9459 0002154 214.1193  95.6958  1.00271781 27539
1 42950U 17059A   25080.85878169 -.00000136  00000-0  00000+0 0  9999
2 42950   0.0185 160.9459 0002154 214.1193  95.6958  1.00271781 27517
1 42950U 17059A   25081.22490427 -.00000136  00000-0  00000-0 0  9999
2 42950   0.0182 157.4606 0002159 218.3235 227.1421  1.00271694 27539
1 42950U 17059A   25081.72682213 -.00000137  00000-0  00000-0 0  9991
2 42950   0.0176 153.0366 0002158 223.4552  47.6192  1.00271587 27536
1 42950U 17059A   25082.17977291 -.00000138  00000-0  00000-0 0  9995
2 42950   0.0167 147.3544 0002153 229.6644 210.6006  1.00271471 27544
1 42950U 17059A   25082.17977291 -.00000138  00000-0  00000+0 0  9994
2 42950   0.0167 147.3544 0002153 229.6644 210.6006  1.00271471 27522
1 42950U 17059A   25082.85253110 -.00000140  00000-0  00000+0 0  9999
2 42950   0.0069 160.7539 0002107 218.8709  90.8499  1.00271357 27535
1 42950U 17059A   25083.39211485 -.00000141  00000-0  00000-0 0  9990
2 42950   0.0031 147.7721 0002118 231.0779 286.4052  1.00271384 27558
1 42950U 17059A   25083.84905861 -.00000142  00000-0  00000+0 0  9998
2 42950   0.0247 174.2767 0002101 206.0701  89.8699  1.00268898 27548
1 42950U 17059A   25083.89383734 -.00000142  00000-0  00000-0 0  9993
2 42950   0.0247 174.3125 0002086 205.4011 106.6668  1.00268664 27563
1 42950U 17059A   25084.08809883 -.00000142  00000-0  00000-0 0  9993
2 42950   0.0248 173.3447 0002069 205.9433 177.2174  1.00268522 27563
1 42950U 17059A   25084.81756372 -.00000143  00000-0  00000-0 0  9999
2 42950   0.0256 172.2480 0002050 207.4686  80.1129  1.00268361 27567
1 42950U 17059A   25085.22745753 -.00000144  00000-0  00000+0 0  9996
2 42950   0.0258 171.3573 0002035 207.8628 228.5735  1.00268266 27559
1 42950U 17059A   25085.39362661 -.00000144  00000-0  00000-0 0  9998
2 42950   0.0258 171.3006 0002021 208.0944 288.3826  1.00268214 27579
1 42950U 17059A   25085.85615797 -.00000144  00000-0  00000-0 0  9990
2 42950   0.0037  99.5286 0002020 279.7058  95.4983  1.00270171 27582
1 42950U 17059A   25085.85615797 -.00000144  00000-0  00000+0 0  9999
2 42950   0.0037  99.5286 0002020 279.7058  95.4983  1.00270171 27560
1 42950U 17059A   25086.17920251 -.00000144  00000-0  00000+0 0  9999
2 42950   0.0200 161.0803 0002042 217.9711 212.2930  1.00270214 27565
1 42950U 17059A   25086.39350046 -.00000144  00000-0  00000-0 0  9993
2 42950   0.0185 158.2036 0002122 218.5251 291.9773  1.00273016 27582
1 42950U 17059A   25086.79483230 -.00000144  00000-0  00000-0 0  9999
2 42950   0.0201 159.2728 0002125 216.1259  78.1826  1.00272348 27586
1 42950U 17059A   25086.79483230 -.00000144  00000-0  00000+0 0  9998
2 42950   0.0201 159.2728 0002125 216.1259  78.1826  1.00272348 27575
1 42950U 17059A   25087.39334418 -.00000144  00000-0  00000-0 0  9999
2 42950   0.0210 156.8463 0002116 218.5028 294.2872  1.00272272 27594
1 42950U 17059A   25087.89323517 -.00000144  00000-0  00000-0 0  9992
2 42950   0.0194 152.8235 0002117 222.3122 114.9553  1.00272182 27603
1 42950U 17059A   25088.10748843 -.00000144  00000-0  00000+0 0  9999
2 42950   0.0179 149.3207 0002121 225.8352 192.2778  1.00272147 27580
1 42950U 17059A   25088.25322395 -.00000144  00000-0  00000-0 0  9996
2 42950   0.0170 149.8208 0002114 225.3743 244.8474  1.00272125 27604
1 42950U 17059A   25088.82168362 -.00000144  00000-0  00000-0 0  9991
2 42950   0.0120 135.8141 0002105 239.3040  90.1312  1.00272033 27617
1 42950U 17059A   25088.82168362 -.00000144  00000-0  00000+0 0  9990
2 42950   0.0120 135.8141 0002105 239.3040  90.1312  1.00272033 27594
1 42950U 17059A   25089.21225221 -.00000144  00000-0  00000-0 0  9993
2 42950   0.0144 130.2645 0002106 244.9226 231.0524  1.00271996 27618
1 42950U 17059A   25090.09489208 -.00000145  00000-0  00000+0 0  9998
2 42950   0.0195 190.0936 0002048 184.7426 190.0291  1.00270707 27602
1 42950U 17059A   25090.17856914 -.00000144  00000-0  00000-0 0  9999
2 42950   0.0195 190.0010 0002041 184.7237 220.3469  1.00270813 27622
1 42950U 17059A   25091.09350488 -.00000146  00000-0  00000+0 0  9997
2 42950   0.0174 167.5305 0002037 209.1814 188.6323  1.00272076 27610
1 42950U 17059A   25091.51016906 -.00000147  00000-0  00000-0 0  9990
2 42950   0.0170 164.6995 0002026 211.2279 339.8268  1.00272003 27636
1 42950U 17059A   25091.89209961 -.00000148  00000-0  00000-0 0  9997
2 42950   0.0174 169.4708 0002037 205.5508 118.6049  1.00271969 27649
